satname,norad_id,inclination_deg,eccentricity,mean_motion_rev_per_day,perigee_km,apogee_km,l1,l2
STARLINK-1316,45415,53.1521,0.0001523,15.42301564,438.28015187271194,440.3567488028848,1 45415U 20019BH  26196.64518728  .00031990  00000+0  73801-3 0  9999,2 45415  53.1521 249.4596 0001523 327.4598  32.6314 15.42301564349664
STARLINK-1286,45417,53.0416,0.0006729,15.68490933,358.68125534662795,367.75377024995305,1 45417U 20019BK  26196.57614791  .00044752  00000+0  39093-3 0  9995,2 45417  53.0416 228.7982 0006729  21.7574 338.3727 15.68490933350177
STARLINK-1308,45419,53.0433,0.0003426,15.69427311,358.22715024443823,362.84448886039536,1 45419U 20019BM  26196.37899182  .00032111  00000+0  27195-3 0  9990,2 45419  53.0433 248.8069 0003426 124.8676 235.2662 15.69427311349628
STARLINK-1329,45531,53.0384,0.0003659,15.78657136,331.7884113393684,336.7005321003726,1 45531U 20025A   26196.93289374  .00060746  00000+0  34172-3 0  9998,2 45531  53.0384 167.4426 0003659  32.1740 327.9503 15.78657136345597
STARLINK-1338,45532,53.0398,0.0002957,15.75260502,341.90229148383514,345.8776982485988,1 45532U 20025B   26196.67052152  .00049578  00000+0  32530-3 0  9998,2 45532  53.0398 176.4874 0002957  75.7352 284.3995 15.75260502345441
STARLINK-1350,45535,53.0693,0.000187,15.40349587,443.80081571255323,446.3526976575531,1 45535U 20025E   26196.89139165  .00036008  00000+0  88441-3 0  9991,2 45535  53.0693 149.5413 0001870  83.6022 276.5195 15.40349587345883
STARLINK-1362,45538,53.1535,0.0005296,15.40593697,440.7427779116315,447.96916246565434,1 45538U 20025H   26196.40055150  .00036502  00000+0  88894-3 0  9993,2 45538  53.1535 223.4037 0005296 351.0610   9.0301 15.40593697344797
STARLINK-1368,45540,53.1537,0.0004184,15.40885268,440.64112350283267,446.3494654068336,1 45540U 20025K   26196.53910038  .00034952  00000+0  84375-3 0  9992,2 45540  53.1537 223.0660 0004184 352.4769   7.6173 15.40885268344806
STARLINK-1371,45542,53.0396,0.000258,15.72112765,351.1231183338259,354.596312639017,1 45542U 20025M   26196.28490135  .00040545  00000+0  30560-3 0  9999,2 45542  53.0396 189.0911 0002580  63.7069 296.4214 15.72112765345235
STARLINK-1372,45543,53.1535,0.0004374,15.41318945,439.2324219503962,445.1988664435403,1 45543U 20025N   26196.35714459  .00033585  00000+0  79969-3 0  9998,2 45543  53.1535 223.3047 0004374 344.4460  15.6410 15.41318945343883
STARLINK-1373,45544,53.0408,0.0003296,15.73933079,345.4521183180959,349.8857695963525,1 45544U 20025P   26196.69240094  .00047884  00000+0  33292-3 0  9991,2 45544  53.0408 181.6652 0003296  69.3042 290.8329 15.73933079345379
STARLINK-1327,45555,53.0391,0.0002451,15.75983376,340.18726096580485,343.4813909097802,1 45555U 20025AA  26196.91813249  .00052352  00000+0  33253-3 0  9999,2 45555  53.0391 157.6061 0002451  95.8040 264.3258 15.75983376345726
STARLINK-1356,45564,53.0393,0.0004188,15.68394236,360.6712000564248,366.3179906807063,1 45564U 20025AK  26196.43423583  .00026658  00000+0  23650-3 0  9994,2 45564  53.0393 174.6731 0004188  54.0341 306.1063 15.68394236345442
STARLINK-1357,45565,53.0427,0.0001209,15.73843754,347.1102471889071,348.73660860037216,1 45565U 20025AL  26196.22325739  .00046703  00000+0  32617-3 0  9992,2 45565  53.0427 131.1119 0001209 223.4283 136.6640 15.73843754346041
STARLINK-1361,45567,53.039,0.0002674,15.72252711,350.6605311098683,354.2600545420719,1 45567U 20025AN  26196.95770785  .00040174  00000+0  30106-3 0  9996,2 45567  53.0390 169.8597 0002674  84.4084 275.7238 15.72252711345561
STARLINK-1376,45570,53.1537,0.0002895,15.41799636,438.82388911634007,442.77205246442827,1 45570U 20025AR  26196.38872885  .00030426  00000+0  71432-3 0  9997,2 45570  53.1537 199.4436 0002895   8.2054 351.8999 15.41799636345126
STARLINK-1320,45572,53.0334,0.0002174,16.03871065,262.2661532145821,265.154028329649,1 45572U 20025AT  26196.86743203  .00310660  54113-4  47566-3 0  9994,2 45572  53.0334  60.6152 0002174 195.8824 164.2140 16.03871065347092
STARLINK-1321,45573,53.0399,0.0001855,15.72765919,349.7477884289556,352.2442967877623,1 45573U 20025AU  26196.31897682  .00045938  00000+0  33602-3 0  9996,2 45573  53.0399 156.7805 0001855  99.4018 260.7209 15.72765919345388
STARLINK-1331,45578,53.0436,0.0002038,15.72495494,350.39594704894625,353.1390561237931,1 45578U 20025AZ  26196.91989797  .00042058  00000+0  31171-3 0  9995,2 45578  53.0436 160.7832 0002038  81.5164 278.6085 15.72495494345690
STARLINK-1333,45580,53.1531,0.000428,15.38814353,446.6919503584704,452.53650540953913,1 45580U 20025BB  26196.70558268  .00035550  00000+0  91825-3 0  9991,2 45580  53.1531 200.2794 0004280   6.2805 353.8252 15.38814353345147
STARLINK-1335,45581,53.1506,0.0003505,15.40332543,442.73553575313235,447.5186438800929,1 45581U 20025BC  26196.69393584  .00034856  00000+0  85701-3 0  9992,2 45581  53.1506 196.5944 0003505 339.8418  20.2448 15.40332543345183
STARLINK-1337,45582,53.0412,0.0001674,15.80336286,328.36604829974385,330.61176145269746,1 45582U 20025BD  26196.95788821  .00065305  00000+0  34011-3 0  9995,2 45582  53.0412 147.5813 0001674 120.5601 239.5586 15.80336286345869
STARLINK-1347,45586,53.0364,0.0001551,15.72809298,349.8286437460865,351.9159824350063,1 45586U 20025BH  26196.79278141  .00047828  00000+0  34894-3 0  9999,2 45586  53.0364 120.7388 0001551  83.6938 276.4256 15.72809298346229
STARLINK-1364,45589,53.0401,0.0004454,15.73540046,345.79268914534896,351.7850347031517,1 45589U 20025BL  26196.90871319  .00044211  00000+0  31301-3 0  9994,2 45589  53.0401 156.6631 0004454  58.8572 301.2882 15.73540046345737
STARLINK-1365,45590,53.0417,0.0002798,15.68568401,361.10938204609374,364.88171982159565,1 45590U 20025BM  26196.41921482  .00032680  00000+0  28659-3 0  9998,2 45590  53.0417 194.9928 0002798  51.7102 308.4166 15.68568401345171
STARLINK-1443,45660,53.1313,0.0002597,15.35378378,458.0210274728779,461.57265030879717,1 45660U 20035D   26196.70995513  .00028978  00000+0  83896-3 0  9994,2 45660  53.1313 189.6830 0002597  51.8755 308.2482 15.35378378338368
STARLINK-1446,45663,53.0208,0.0002436,15.49837618,415.54533132044344,418.8560198359846,1 45663U 20035G   26196.92547649  .00021469  00000+0  38576-3 0  9997,2 45663  53.0208 107.1914 0002436  32.4367 327.6790 15.49837618339514
STARLINK-1448,45665,53.0398,0.000211,15.77593233,335.84499676012183,338.67889511530757,1 45665U 20035J   26196.94994247  .00063598  00000+0  37497-3 0  9991,2 45665  53.0398 143.2458 0002110 108.7759 251.3490 15.77593233339008
STARLINK-1451,45668,53.0483,0.0002311,15.15853568,516.7946296564305,519.9822037040194,1 45668U 20035M   26196.42885497  .00012758  00000+0  67390-3 0  9990,2 45668  53.0483 206.6451 0002311  15.7108 344.3957 15.15853568338081
STARLINK-1452,45669,53.0218,0.0007013,15.64954883,368.63368756266755,378.1033492027509,1 45669U 20035N   26196.21135213  .00030849  00000+0  31292-3 0  9995,2 45669  53.0218 125.0488 0007013  75.6881 284.4911 15.64954883339204
STARLINK-1453,45670,53.0361,0.0001861,15.78503468,333.43084489582634,335.9293554205051,1 45670U 20035P   26196.90445353  .00065821  00000+0  37239-3 0  9997,2 45670  53.0361 103.5898 0001861 179.7243 180.3779 15.78503468339451
STARLINK-1454,45671,53.0417,0.0001673,15.7598852,340.6954545911776,342.94395210411676,1 45671U 20035Q   26196.92971737  .00059599  00000+0  37762-3 0  9996,2 45671  53.0417 145.0198 0001673  87.9125 272.2086 15.75988520338979
STARLINK-1456,45673,53.0393,0.0001532,15.722032,351.57044722866067,353.6327455345918,1 45673U 20035S   26196.83357832  .00045104  00000+0  33799-3 0  9995,2 45673  53.0393 140.8029 0001532  93.6552 266.4641 15.72203200339045
STARLINK-1458,45675,53.0426,0.0004654,15.64027081,372.89491748398086,379.18170386315524,1 45675U 20035U   26196.62114191  .00097371  00000+0  10047-2 0  9996,2 45675  53.0426 158.8781 0004654  71.2789 288.8730 15.64027081338734
STARLINK-1460,45676,53.1552,0.0005189,15.38509976,446.9713403145788,454.05811507758244,1 45676U 20035V   26196.36118720  .00046943  00000+0  12194-2 0  9994,2 45676  53.1552 189.1463 0005189  27.5764 332.5515 15.38509976338301
STARLINK-1392,45677,53.1504,0.0005046,15.4198884,436.7996115790138,443.68071781362414,1 45677U 20035W   26196.36059690  .00032937  00000+0  76719-3 0  9997,2 45677  53.1504 186.8463 0005046  20.7803 339.3407 15.41988840338371
STARLINK-1394,45679,53.038,0.0001372,15.70595192,356.27077200232816,358.11894706458406,1 45679U 20035Y   26196.22449513  .00049968  00000+0  39981-3 0  9993,2 45679  53.0380 134.3718 0001372 107.6573 252.4594 15.70595192339078
STARLINK-1402,45685,53.0395,0.0001132,15.67749688,364.57889559433806,366.10561929822325,1 45685U 20035AE  26196.94838040  .00032221  00000+0  29225-3 0  9990,2 45685  53.0395 123.2709 0001132 127.4843 232.6276 15.67749688339302
STARLINK-1404,45686,53.1542,0.0004997,15.4805534,419.0170929926371,425.8135649902306,1 45686U 20035AF  26196.33391268  .00047885  00000+0  90207-3 0  9990,2 45686  53.1542 166.9767 0004997  14.5437 345.5715 15.48055340338656
STARLINK-1413,45689,53.1549,0.0004716,15.38207293,448.18969569787623,454.6313249095947,1 45689U 20035AJ  26196.66331060  .00030612  00000+0  80839-3 0  9993,2 45689  53.1549 172.4011 0004716  29.6252 330.5019 15.38207293338523
STARLINK-1417,45693,53.0469,0.0002863,15.18466133,508.50348883588595,512.447908467133,1 45693U 20035AN  26196.26568416  .00005706  00000+0  28854-3 0  9996,2 45693  53.0469 193.3594 0002863 318.3723  41.7052 15.18466133338243
STARLINK-1420,45695,53.0425,0.0001308,15.75033666,343.65605705450616,345.414708149794,1 45695U 20035AQ  26196.97725715  .00050642  00000+0  33548-3 0  9998,2 45695  53.0425 112.8284 0001308 158.9658 201.1415 15.75033666339449
STARLINK-1422,45696,53.1532,0.000183,15.40041352,444.73834312064173,447.2359725624119,1 45696U 20035AR  26196.31505547  .00029322  00000+0  73006-3 0  9990,2 45696  53.1532 173.6969 0001830  89.5834 270.5381 15.40041352338556
